STARLINK-1433
1 15711C 20035BG  21326.13470434 -.00007986  00000-0 -53503-3 0  3263
2 15711  53.0530 238.1470 0001979  57.0108  86.2277 15.06407721    14
